NORAD_CAT_ID,OBJECT_NAME,OBJECT_TYPE,EPOCH,MEAN_MOTION,ECCENTRICITY,INCLINATION,RA_OF_ASC_NODE,ARG_OF_PERICENTER,MEAN_ANOMALY,BSTAR,MEAN_MOTION_DOT,MEAN_MOTION_DDOT,TLE_LINE0,TLE_LINE1,TLE_LINE2,SEMIMAJOR_AXIS,PERIOD,APOGEE,PERIGEE,DECAYED
53868.0,STARLINK-4789,PAYLOAD,2023-04-07 05:16:18,15.08799443,0.0001276,53.22,15.9791,108.8336,251.2795,-0.00027469,-4.652e-05,0.0,0 STARLINK-4789,1 53868U 22114BC  23097.21965614 -.00004652  00000-0 -27469-3 0  9995,2 53868  53.2200  15.9791 0001276 108.8336 251.2795 15.08799443 31703,6918.004,95.44,540.752,538.987,0.0
53868.0,STARLINK-4789,PAYLOAD,2023-04-08 03:31:37,15.08862892,0.0001265,53.2203,11.8153,115.4144,244.6979,0.00019785,2.864e-05,0.0,0 STARLINK-4789,1 53868U 22114BC  23098.14696373  .00002864  00000-0  19785-3 0  9994,2 53868  53.2203  11.8153 0001265 115.4144 244.6979 15.08862892 31846,6917.81,95.436,540.551,538.8,0.0
53868.0,STARLINK-4789,PAYLOAD,2023-04-08 17:50:06,15.08835196,0.0001329,53.2196,9.1409,110.1988,249.9147,0.00039095,5.939e-05,0.0,0 STARLINK-4789,1 53868U 22114BC  23098.74313609  .00005939  00000-0  39095-3 0  9990,2 53868  53.2196   9.1409 0001329 110.1988 249.9147 15.08835196 31932,6917.895,95.438,540.679,538.841,0.0
53868.0,STARLINK-4789,PAYLOAD,2023-04-09 03:22:24,15.0884807,0.000143,53.2201,7.3559,117.1231,242.9907,0.00042791,6.53e-05,0.0,0 STARLINK-4789,1 53868U 22114BC  23099.14056591  .00006530  00000-0  42791-3 0  9994,2 53868  53.2201   7.3559 0001430 117.1231 242.9907 15.08848070 31994,6917.856,95.437,540.71,538.731,0.0
53868.0,STARLINK-4789,PAYLOAD,2023-04-10 00:02:26,15.08859428,0.0001675,53.2203,3.4929,105.3059,254.8119,-0.00014732,-2.633e-05,0.0,0 STARLINK-4789,1 53868U 22114BC  23100.00169447 -.00002633  00000-0 -14732-3 0  9993,2 53868  53.2203   3.4929 0001675 105.3059 254.8119 15.08859428 32124,6917.821,95.436,540.845,538.527,0.0
53868.0,STARLINK-4789,PAYLOAD,2023-04-10 03:13:12,15.08861419,0.0001304,53.2199,2.8951,116.1597,243.953,-0.00015507,-2.756e-05,0.0,0 STARLINK-4789,1 53868U 22114BC  23100.13417100 -.00002756  00000-0 -15507-3 0  9996,2 53868  53.2199   2.8951 0001304 116.1597 243.9530 15.08861419 32682,6917.815,95.436,540.582,538.778,0.0
53868.0,STARLINK-4789,PAYLOAD,2023-04-11 03:03:58,15.08862575,0.0001293,53.2206,358.435,107.1612,252.9522,-8.5422e-05,-1.648e-05,0.0,0 STARLINK-4789,1 53868U 22114BC  23101.12775740 -.00001648  00000-0 -85422-4 0  9996,2 53868  53.2206 358.4350 0001293 107.1612 252.9522 15.08862575 32291,6917.811,95.436,540.571,538.782,0.0
53868.0,STARLINK-4789,PAYLOAD,2023-04-12 02:54:46,15.08837326,9.79e-05,53.2186,353.9754,93.7688,266.3416,-8.2408e-05,-1.599e-05,0.0,0 STARLINK-4789,1 53868U 22114BC  23102.12137365 -.00001599  00000-0 -82408-4 0  9998,2 53868  53.2186 353.9754 0000979  93.7688 266.3416 15.08837326 32443,6917.889,95.438,540.431,539.076,0.0
53868.0,STARLINK-4789,PAYLOAD,2023-04-12 23:34:47,15.08840206,8.6e-05,53.2196,350.1095,85.6895,274.4195,-0.00010481,-1.955e-05,0.0,0 STARLINK-4789,1 53868U 22114BC  23102.98249579 -.00001955  00000-0 -10481-3 0  9990,2 53868  53.2196 350.1095 0000860  85.6895 274.4195 15.08840206 33110,6917.88,95.438,540.34,539.15,0.0
53868.0,STARLINK-4789,PAYLOAD,2023-04-14 01:00:56,15.08847168,6.79e-05,53.2192,345.3514,74.1845,285.9222,4.2474e-05,3.89e-06,0.0,0 STARLINK-4789,1 53868U 22114BC  23104.04232634  .00000389  00000-0  42474-4 0  9999,2 53868  53.2192 345.3514 0000679  74.1845 285.9222 15.08847168 32733,6917.858,95.437,540.193,539.254,0.0
53868.0,STARLINK-4789,PAYLOAD,2023-04-15 00:51:44,15.08841355,8.56e-05,53.2193,340.8918,70.8875,289.221,-7.1118e-06,-4.01e-06,0.0,0 STARLINK-4789,1 53868U 22114BC  23105.03593324 -.00000401  00000-0 -71118-5 0  9990,2 53868  53.2193 340.8918 0000856  70.8875 289.2210 15.08841355 33428,6917.876,95.437,540.333,539.149,0.0
53868.0,STARLINK-4789,PAYLOAD,2023-04-15 21:31:45,15.08846023,6.6e-05,53.2183,337.0247,108.5603,251.5461,-9.6563e-05,-1.824e-05,0.0,0 STARLINK-4789,1 53868U 22114BC  23105.89705125 -.00001824  00000-0 -96563-4 0  9998,2 53868  53.2183 337.0247 0000660 108.5603 251.5461 15.08846023 33552,6917.862,95.437,540.184,539.27,0.0
53868.0,STARLINK-4789,PAYLOAD,2023-04-16 00:42:31,15.08847722,6.7e-05,53.2186,336.4308,100.527,259.5798,-7.8532e-05,-1.537e-05,0.0,0 STARLINK-4789,1 53868U 22114BC  23106.02952940 -.00001537  00000-0 -78532-4 0  9990,2 53868  53.2186 336.4308 0000670 100.5270 259.5798 15.08847722 33030,6917.857,95.437,540.185,539.258,0.0
53868.0,STARLINK-4789,PAYLOAD,2023-04-16 19:47:10,15.08829446,8.9e-05,53.2188,332.8636,89.816,270.2934,-0.00014824,-2.645e-05,0.0,0 STARLINK-4789,1 53868U 22114BC  23106.82443103 -.00002645  00000-0 -14824-3 0  9998,2 53868  53.2188 332.8636 0000890  89.8160 270.2934 15.08829446 33155,6917.913,95.438,540.393,539.162,0.0
53868.0,STARLINK-4789,PAYLOAD,2023-04-16 21:22:33,15.0883015,8.32e-05,53.2187,332.5661,91.452,268.6568,-0.00014039,-2.521e-05,0.0,0 STARLINK-4789,1 53868U 22114BC  23106.89067055 -.00002521  00000-0 -14039-3 0  9994,2 53868  53.2187 332.5661 0000832  91.4520 268.6568 15.08830150 33703,6917.91,95.438,540.351,539.2,0.0
53868.0,STARLINK-4789,PAYLOAD,2023-04-17 00:33:20,15.08830733,8.41e-05,53.2185,331.97,96.0572,264.0516,-0.00010344,-1.933e-05,0.0,0 STARLINK-4789,1 53868U 22114BC  23107.02314940 -.00001933  00000-0 -10344-3 0  9999,2 53868  53.2185 331.9700 0000841  96.0572 264.0516 15.08830733 33728,6917.909,95.438,540.356,539.192,0.0
53868.0,STARLINK-4789,PAYLOAD,2023-04-17 19:37:56,15.08851183,6.83e-05,53.2185,328.4056,59.8569,300.2491,-1.3794e-05,-5.07e-06,0.0,0 STARLINK-4789,1 53868U 22114BC  23107.81801579 -.00000507  00000-0 -13794-4 0  9994,2 53868  53.2185 328.4056 0000683  59.8569 300.2491 15.08851183 33301,6917.846,95.437,540.184,539.239,0.0
53868.0,STARLINK-4789,PAYLOAD,2023-04-17 21:13:18,15.08856321,6.38e-05,53.219,328.1053,92.9616,267.1449,0.00012249,1.663e-05,0.0,0 STARLINK-4789,1 53868U 22114BC  23107.88424582  .00001663  00000-0  12249-3 0  9991,2 53868  53.2190 328.1053 0000638  92.9616 267.1449 15.08856321 33855,6917.831,95.437,540.137,539.254,0.0
53868.0,STARLINK-4789,PAYLOAD,2023-04-18 00:24:04,15.08857591,6.63e-05,53.2189,327.5104,92.4822,267.6246,0.00013311,1.832e-05,0.0,0 STARLINK-4789,1 53868U 22114BC  23108.01672352  .00001832  00000-0  13311-3 0  9996,2 53868  53.2189 327.5104 0000663  92.4822 267.6246 15.08857591 33877,6917.827,95.436,540.15,539.233,0.0
53868.0,STARLINK-4789,PAYLOAD,2023-04-18 14:42:34,15.08835384,6.07e-05,53.2205,324.8323,127.6706,232.4341,3.4356e-05,2.59e-06,0.0,0 STARLINK-4789,1 53868U 22114BC  23108.61290102  .00000259  00000-0  34356-4 0  9996,2 53868  53.2205 324.8323 0000607 127.6706 232.4341 15.08835384 33422,6917.894,95.438,540.179,539.34,0.0
53868.0,STARLINK-4789,PAYLOAD,2023-04-19 00:14:53,15.08838744,6.48e-05,53.2187,323.0494,104.1135,255.9929,7.5836e-05,9.19e-06,0.0,0 STARLINK-4789,1 53868U 22114BC  23109.01033764  .00000919  00000-0  75836-4 0  9991,2 53868  53.2187 323.0494 0000648 104.1135 255.9929 15.08838744 34024,6917.884,95.438,540.198,539.301,0.0
53868.0,STARLINK-4789,PAYLOAD,2023-04-19 20:54:53,15.08850956,6.72e-05,53.2188,319.1859,87.8005,272.3064,-8.165e-05,-1.587e-05,0.0,0 STARLINK-4789,1 53868U 22114BC  23109.87145496 -.00001587  00000-0 -81650-4 0  9996,2 53868  53.2188 319.1859 0000672  87.8005 272.3064 15.08850956 34152,6917.847,95.437,540.177,539.247,0.0
53868.0,STARLINK-4789,PAYLOAD,2023-04-20 00:05:39,15.08852574,6e-05,53.2178,318.5898,80.5951,279.5109,-6.5477e-05,-1.33e-05,0.0,0 STARLINK-4789,1 53868U 22114BC  23110.00393243 -.00001330  00000-0 -65477-4 0  9993,2 53868  53.2178 318.5898 0000600  80.5951 279.5109 15.08852574 33637,6917.842,95.437,540.122,539.292,0.0
53868.0,STARLINK-4789,PAYLOAD,2023-04-20 20:45:41,15.08830764,5.77e-05,53.217,314.7237,81.2162,278.8896,-5.4906e-05,-1.161e-05,0.0,0 STARLINK-4789,1 53868U 22114BC  23110.86506594 -.00001161  00000-0 -54906-4 0  9999,2 53868  53.2170 314.7237 0000577  81.2162 278.8896 15.08830764 33765,6917.909,95.438,540.173,539.374,0.0
53868.0,STARLINK-4789,PAYLOAD,2023-04-21 12:39:32,15.08835647,6.96e-05,53.218,311.7497,84.6439,275.4632,-4.327e-05,-9.76e-06,0.0,0 STARLINK-4789,1 53868U 22114BC  23111.52746510 -.00000976  00000-0 -43270-4 0  9992,2 53868  53.2180 311.7497 0000696  84.6439 275.4632 15.08835647 34405,6917.894,95.438,540.24,539.277,0.0
53868.0,STARLINK-4789,PAYLOAD,2023-04-21 14:14:56,15.08836022,6.01e-05,53.217,311.4525,76.127,283.9789,-3.3246e-05,-8.17e-06,0.0,0 STARLINK-4789,1 53868U 22114BC  23111.59370436 -.00000817  00000-0 -33246-4 0  9995,2 53868  53.2170 311.4525 0000601  76.1270 283.9789 15.08836022 34414,6917.893,95.438,540.173,539.342,0.0
53868.0,STARLINK-4789,PAYLOAD,2023-04-22 14:05:48,15.0878249,7.43e-05,53.2181,306.9939,94.219,265.8887,-0.00037115,-6.18e-05,0.0,0 STARLINK-4789,1 53868U 22114BC  23112.58736619 -.00006180  00000-0 -37115-3 0  9991,2 53868  53.2181 306.9939 0000743  94.2190 265.8887 15.08782490 34027,6918.056,95.441,540.435,539.407,0.0
53868.0,STARLINK-4789,PAYLOAD,2023-04-22 20:27:41,15.08558797,0.0001728,53.2181,305.8052,356.8289,3.2692,-0.0021232,-0.00033663,0.0,0 STARLINK-4789,1 53868U 22114BC  23112.85255869 -.00033663  00000-0 -21232-2 0  9992,2 53868  53.2181 305.8052 0001728 356.8289   3.2692 15.08558797 34064,6918.74,95.455,541.801,539.409,0.0
53868.0,STARLINK-4789,PAYLOAD,2023-04-23 01:14:05,15.08412566,0.0001255,53.2188,304.9152,35.9118,324.1958,-0.0032021,-0.00050304,0.0,0 STARLINK-4789,1 53868U 22114BC  23113.05145095 -.00050304  00000-0 -32021-2 0  9993,2 53868  53.2188 304.9152 0001255  35.9118 324.1958 15.08412566 34099,6919.187,95.465,541.921,540.184,0.0
53868.0,STARLINK-4789,PAYLOAD,2023-04-23 12:22:15,15.08202331,0.000147,53.2194,302.8357,111.1553,248.9596,-0.004507,-0.00070089,0.0,0 STARLINK-4789,1 53868U 22114BC  23113.51546221 -.00070089  00000-0 -45070-2 0  9990,2 53868  53.2194 302.8357 0001470 111.1553 248.9596 15.08202331 34165,6919.83,95.478,542.712,540.678,0.0
